[
    {
        "Altitude(m)": 717876.815481218,
        "Argument of Periapsis(deg)": 0.006834072711976239,
        "Eccentricity": 0.0,
        "Inclination(deg)": 45.0,
        "Latitude(deg)": -45.140397591628464,
        "Longitude(deg)": -7.2232702420094315,
        "Mean Anomaly(deg)": -91.26187001151155,
        "RAAN(deg)": 184.9935488351251,
        "Satellite Name": "Constellation 1 830",
        "Satellite Number": 830,
        "Semi-Major Axis(m)": 7083131.272910544,
        "Time(s)": 114
    },
    {
        "Altitude(m)": 717877.3400817434,
        "Argument of Periapsis(deg)": 0.006894020718221645,
        "Eccentricity": 0.0,
        "Inclination(deg)": 45.0,
        "Latitude(deg)": -45.1416908634411,
        "Longitude(deg)": -7.141780498479593,
        "Mean Anomaly(deg)": -91.20116887126159,
        "RAAN(deg)": 184.9934922459595,
        "Satellite Name": "Constellation 1 830",
        "Satellite Number": 830,
        "Semi-Major Axis(m)": 7083131.272910544,
        "Time(s)": 115
    },
    {
        "Altitude(m)": 717877.8382940099,
        "Argument of Periapsis(deg)": 0.006953968724467052,
        "Eccentricity": 0.0,
        "Inclination(deg)": 45.0,
        "Latitude(deg)": -45.14292000415537,
        "Longitude(deg)": -7.060286988414956,
        "Mean Anomaly(deg)": -91.14046773101168,
        "RAAN(deg)": 184.99343565679393,
        "Satellite Name": "Constellation 1 830",
        "Satellite Number": 830,
        "Semi-Major Axis(m)": 7083131.272910544,
        "Time(s)": 116
    },
    {
        "Altitude(m)": 717878.3101161622,
        "Argument of Periapsis(deg)": 0.007013916730712457,
        "Eccentricity": 0.0,
        "Inclination(deg)": 45.0,
        "Latitude(deg)": -45.14408500833086,
        "Longitude(deg)": -6.9787899030313545,
        "Mean Anomaly(deg)": -91.07976659076176,
        "RAAN(deg)": 184.99337906762835,
        "Satellite Name": "Constellation 1 830",
        "Satellite Number": 830,
        "Semi-Major Axis(m)": 7083131.272910544,
        "Time(s)": 117
    },
    {
        "Altitude(m)": 717878.7555464345,
        "Argument of Periapsis(deg)": 0.007073864736957864,
        "Eccentricity": 0.0,
        "Inclination(deg)": 45.0,
        "Latitude(deg)": -45.14518587081051,
        "Longitude(deg)": -6.897289433608803,
        "Mean Anomaly(deg)": -91.01906545051193,
        "RAAN(deg)": 184.9933224784628,
        "Satellite Name": "Constellation 1 830",
        "Satellite Number": 830,
        "Semi-Major Axis(m)": 7083131.272910544,
        "Time(s)": 118
    },
    {
        "Altitude(m)": 717879.1745831658,
        "Argument of Periapsis(deg)": 0.0071338127432032696,
        "Eccentricity": 0.0,
        "Inclination(deg)": 45.0,
        "Latitude(deg)": -45.146222586720974,
        "Longitude(deg)": -6.815785939584796,
        "Mean Anomaly(deg)": -90.95836431026206,
        "RAAN(deg)": 184.9932658892972,
        "Satellite Name": "Constellation 1 830",
        "Satellite Number": 830,
        "Semi-Major Axis(m)": 7083131.272910544,
        "Time(s)": 119
    },
    {
        "Altitude(m)": 717879.5672247842,
        "Argument of Periapsis(deg)": 0.007193760749448674,
        "Eccentricity": 0.0,
        "Inclination(deg)": 45.0,
        "Latitude(deg)": -45.1471951514715,
        "Longitude(deg)": -6.734279276162534,
        "Mean Anomaly(deg)": -90.89766317001211,
        "RAAN(deg)": 184.99320930013164,
        "Satellite Name": "Constellation 1 830",
        "Satellite Number": 830,
        "Semi-Major Axis(m)": 7083131.272910544,
        "Time(s)": 120
    },
    {
        "Altitude(m)": 717879.9334698251,
        "Argument of Periapsis(deg)": 0.007253708755694079,
        "Eccentricity": 0.0,
        "Inclination(deg)": 45.0,
        "Latitude(deg)": -45.14810356075589,
        "Longitude(deg)": -6.652769802890692,
        "Mean Anomaly(deg)": -90.83696202976225,
        "RAAN(deg)": 184.9931527109661,
        "Satellite Name": "Constellation 1 830",
        "Satellite Number": 830,
        "Semi-Major Axis(m)": 7083131.272910544,
        "Time(s)": 121
    },
    {
        "Altitude(m)": 717880.2733169106,
        "Argument of Periapsis(deg)": 0.0073136567619394854,
        "Eccentricity": 0.0,
        "Inclination(deg)": 45.0,
        "Latitude(deg)": -45.148947810551405,
        "Longitude(deg)": -6.571257711270601,
        "Mean Anomaly(deg)": -90.77626088951232,
        "RAAN(deg)": 184.9930961218005,
        "Satellite Name": "Constellation 1 830",
        "Satellite Number": 830,
        "Semi-Major Axis(m)": 7083131.272910544,
        "Time(s)": 122
    },
    {
        "Altitude(m)": 717880.5867647723,
        "Argument of Periapsis(deg)": 0.0073736047681848904,
        "Eccentricity": 0.0,
        "Inclination(deg)": 45.0,
        "Latitude(deg)": -45.14972789711908,
        "Longitude(deg)": -6.489743192850792,
        "Mean Anomaly(deg)": -90.71555974926241,
        "RAAN(deg)": 184.99303953263495,
        "Satellite Name": "Constellation 1 830",
        "Satellite Number": 830,
        "Semi-Major Axis(m)": 7083131.272910544,
        "Time(s)": 123
    },
    {
        "Altitude(m)": 717880.873812229,
        "Argument of Periapsis(deg)": 0.007433552774430298,
        "Eccentricity": 0.0,
        "Inclination(deg)": 45.0,
        "Latitude(deg)": -45.15044381700378,
        "Longitude(deg)": -6.4082264392229735,
        "Mean Anomaly(deg)": -90.65485860901244,
        "RAAN(deg)": 184.99298294346934,
        "Satellite Name": "Constellation 1 830",
        "Satellite Number": 830,
        "Semi-Major Axis(m)": 7083131.272910544,
        "Time(s)": 124
    },
    {
        "Altitude(m)": 717881.1344582008,
        "Argument of Periapsis(deg)": 0.007493500780675703,
        "Eccentricity": 0.0,
        "Inclination(deg)": 45.0,
        "Latitude(deg)": -45.15109556703441,
        "Longitude(deg)": -6.326707642019367,
        "Mean Anomaly(deg)": -90.59415746876259,
        "RAAN(deg)": 184.9929263543038,
        "Satellite Name": "Constellation 1 830",
        "Satellite Number": 830,
        "Semi-Major Axis(m)": 7083131.272910544,
        "Time(s)": 125
    },
    {
        "Altitude(m)": 717881.368701704,
        "Argument of Periapsis(deg)": 0.007553448786921108,
        "Eccentricity": 0.0,
        "Inclination(deg)": 45.0,
        "Latitude(deg)": -45.15168314432423,
        "Longitude(deg)": -6.2451871610053065,
        "Mean Anomaly(deg)": -90.53345632851276,
        "RAAN(deg)": 184.99286976513824,
        "Satellite Name": "Constellation 1 830",
        "Satellite Number": 830,
        "Semi-Major Axis(m)": 7083131.272910544,
        "Time(s)": 126
    },
    {
        "Altitude(m)": 717881.5765418577,
        "Argument of Periapsis(deg)": 0.007613396793166514,
        "Eccentricity": 0.0,
        "Inclination(deg)": 45.0,
        "Latitude(deg)": -45.15220654626953,
        "Longitude(deg)": -6.163664851688199,
        "Mean Anomaly(deg)": -90.47275518826282,
        "RAAN(deg)": 184.99281317597266,
        "Satellite Name": "Constellation 1 830",
        "Satellite Number": 830,
        "Semi-Major Axis(m)": 7083131.272910544,
        "Time(s)": 127
    },
    {
        "Altitude(m)": 717881.7579778737,
        "Argument of Periapsis(deg)": 0.007673344799411918,
        "Eccentricity": 0.0,
        "Inclination(deg)": 45.0,
        "Latitude(deg)": -45.15266577055184,
        "Longitude(deg)": -6.082141073896512,
        "Mean Anomaly(deg)": -90.41205404801292,
        "RAAN(deg)": 184.9927565868071,
        "Satellite Name": "Constellation 1 830",
        "Satellite Number": 830,
        "Semi-Major Axis(m)": 7083131.272910544,
        "Time(s)": 128
    },
    {
        "Altitude(m)": 717881.9130090587,
        "Argument of Periapsis(deg)": 0.007733292805657325,
        "Eccentricity": 0.0,
        "Inclination(deg)": 45.0,
        "Latitude(deg)": -45.15306081513639,
        "Longitude(deg)": -6.000616019387934,
        "Mean Anomaly(deg)": -90.35135290776302,
        "RAAN(deg)": 184.99269999764155,
        "Satellite Name": "Constellation 1 830",
        "Satellite Number": 830,
        "Semi-Major Axis(m)": 7083131.272910544,
        "Time(s)": 129
    },
    {
        "Altitude(m)": 717882.0416348267,
        "Argument of Periapsis(deg)": 0.00779324081190273,
        "Eccentricity": 0.0,
        "Inclination(deg)": 45.0,
        "Latitude(deg)": -45.15339167827279,
        "Longitude(deg)": -5.919089879942923,
        "Mean Anomaly(deg)": -90.2906517675131,
        "RAAN(deg)": 184.99264340847594,
        "Satellite Name": "Constellation 1 830",
        "Satellite Number": 830,
        "Semi-Major Axis(m)": 7083131.272910544,
        "Time(s)": 130
    },
    {
        "Altitude(m)": 717882.143854676,
        "Argument of Periapsis(deg)": 0.007853188818148135,
        "Eccentricity": 0.0,
        "Inclination(deg)": 45.0,
        "Latitude(deg)": -45.15365835849494,
        "Longitude(deg)": -5.837562847361566,
        "Mean Anomaly(deg)": -90.22995062726325,
        "RAAN(deg)": 184.9925868193104,
        "Satellite Name": "Constellation 1 830",
        "Satellite Number": 830,
        "Semi-Major Axis(m)": 7083131.272910544,
        "Time(s)": 131
    },
    {
        "Altitude(m)": 717882.2196682153,
        "Argument of Periapsis(deg)": 0.007913136824393542,
        "Eccentricity": 0.0,
        "Inclination(deg)": 45.0,
        "Latitude(deg)": -45.15386085462085,
        "Longitude(deg)": -5.75603511345962,
        "Mean Anomaly(deg)": -90.16924948701332,
        "RAAN(deg)": 184.9925302301448,
        "Satellite Name": "Constellation 1 830",
        "Satellite Number": 830,
        "Semi-Major Axis(m)": 7083131.272910544,
        "Time(s)": 132
    }
]